KUIPER-00244            
1 68583U 26072L   26099.50157133  .00018891  00000+0  50980-3 0  9999
2 68583  51.8746 149.0725 0004064 111.4311 248.7110 15.37801038   815
